<?xml version="1.0" encoding="UTF-8"?>
<ndm xmlns:xsi="http://www.w3.org/2001/XMLSchema-instance" xsi:noNamespaceSchemaLocation="https://sanaregistry.org/r/ndmxml_unqualified/ndmxml-2.0.0-master-2.0.xsd">
<omm id="CCSDS_OMM_VERS" version="2.0">
<header><CREATION_DATE/><ORIGINATOR/></header><body><segment><metadata><OBJECT_NAME>ORBCOMM FM37</OBJECT_NAME><OBJECT_ID>2008-031E</OBJECT_ID><CENTER_NAME>EARTH</CENTER_NAME><REF_FRAME>TEME</REF_FRAME><TIME_SYSTEM>UTC</TIME_SYSTEM><MEAN_ELEMENT_THEORY>SGP4</MEAN_ELEMENT_THEORY></metadata><data><meanElements><EPOCH>2024-11-27T21:38:42.685152</EPOCH><MEAN_MOTION>14.78289141</MEAN_MOTION><ECCENTRICITY>.0006116</ECCENTRICITY><INCLINATION>48.4388</INCLINATION><RA_OF_ASC_NODE>219.5809</RA_OF_ASC_NODE><ARG_OF_PERICENTER>227.4415</ARG_OF_PERICENTER><MEAN_ANOMALY>183.2045</MEAN_ANOMALY></meanElements><tleParameters><EPHEMERIS_TYPE>0</EPHEMERIS_TYPE><CLASSIFICATION_TYPE>U</CLASSIFICATION_TYPE><NORAD_CAT_ID>33064</NORAD_CAT_ID><ELEMENT_SET_NO>999</ELEMENT_SET_NO><REV_AT_EPOCH>88425</REV_AT_EPOCH><BSTAR>.64407E-3</BSTAR><MEAN_MOTION_DOT>.4524E-4</MEAN_MOTION_DOT><MEAN_MOTION_DDOT>0</MEAN_MOTION_DDOT></tleParameters></data></segment></body></omm>
<omm id="CCSDS_OMM_VERS" version="2.0">
<header><CREATION_DATE/><ORIGINATOR/></header><body><segment><metadata><OBJECT_NAME>ORBCOMM FM40</OBJECT_NAME><OBJECT_ID>2008-031F</OBJECT_ID><CENTER_NAME>EARTH</CENTER_NAME><REF_FRAME>TEME</REF_FRAME><TIME_SYSTEM>UTC</TIME_SYSTEM><MEAN_ELEMENT_THEORY>SGP4</MEAN_ELEMENT_THEORY></metadata><data><meanElements><EPOCH>2024-11-27T21:30:26.553024</EPOCH><MEAN_MOTION>14.80118359</MEAN_MOTION><ECCENTRICITY>.0007474</ECCENTRICITY><INCLINATION>48.4408</INCLINATION><RA_OF_ASC_NODE>206.7261</RA_OF_ASC_NODE><ARG_OF_PERICENTER>236.6289</ARG_OF_PERICENTER><MEAN_ANOMALY>191.0537</MEAN_ANOMALY></meanElements><tleParameters><EPHEMERIS_TYPE>0</EPHEMERIS_TYPE><CLASSIFICATION_TYPE>U</CLASSIFICATION_TYPE><NORAD_CAT_ID>33065</NORAD_CAT_ID><ELEMENT_SET_NO>999</ELEMENT_SET_NO><REV_AT_EPOCH>88432</REV_AT_EPOCH><BSTAR>.76961E-3</BSTAR><MEAN_MOTION_DOT>.5696E-4</MEAN_MOTION_DOT><MEAN_MOTION_DDOT>0</MEAN_MOTION_DDOT></tleParameters></data></segment></body></omm>
<omm id="CCSDS_OMM_VERS" version="2.0">
<header><CREATION_DATE/><ORIGINATOR/></header><body><segment><metadata><OBJECT_NAME>VESSELSAT 1</OBJECT_NAME><OBJECT_ID>2011-058C</OBJECT_ID><CENTER_NAME>EARTH</CENTER_NAME><REF_FRAME>TEME</REF_FRAME><TIME_SYSTEM>UTC</TIME_SYSTEM><MEAN_ELEMENT_THEORY>SGP4</MEAN_ELEMENT_THEORY></metadata><data><meanElements><EPOCH>2024-11-28T00:30:07.585632</EPOCH><MEAN_MOTION>14.11269334</MEAN_MOTION><ECCENTRICITY>.0013762</ECCENTRICITY><INCLINATION>19.9610</INCLINATION><RA_OF_ASC_NODE>231.0783</RA_OF_ASC_NODE><ARG_OF_PERICENTER>133.6102</ARG_OF_PERICENTER><MEAN_ANOMALY>226.5445</MEAN_ANOMALY></meanElements><tleParameters><EPHEMERIS_TYPE>0</EPHEMERIS_TYPE><CLASSIFICATION_TYPE>U</CLASSIFICATION_TYPE><NORAD_CAT_ID>37840</NORAD_CAT_ID><ELEMENT_SET_NO>999</ELEMENT_SET_NO><REV_AT_EPOCH>67808</REV_AT_EPOCH><BSTAR>.16628E-3</BSTAR><MEAN_MOTION_DOT>.57E-5</MEAN_MOTION_DOT><MEAN_MOTION_DDOT>0</MEAN_MOTION_DDOT></tleParameters></data></segment></body></omm>
<omm id="CCSDS_OMM_VERS" version="2.0">
<header><CREATION_DATE/><ORIGINATOR/></header><body><segment><metadata><OBJECT_NAME>ORBCOMM FM109</OBJECT_NAME><OBJECT_ID>2014-040A</OBJECT_ID><CENTER_NAME>EARTH</CENTER_NAME><REF_FRAME>TEME</REF_FRAME><TIME_SYSTEM>UTC</TIME_SYSTEM><MEAN_ELEMENT_THEORY>SGP4</MEAN_ELEMENT_THEORY></metadata><data><meanElements><EPOCH>2024-11-27T21:41:40.369344</EPOCH><MEAN_MOTION>14.57621654</MEAN_MOTION><ECCENTRICITY>.0001605</ECCENTRICITY><INCLINATION>47.0026</INCLINATION><RA_OF_ASC_NODE>246.4711</RA_OF_ASC_NODE><ARG_OF_PERICENTER>109.7344</ARG_OF_PERICENTER><MEAN_ANOMALY>250.3715</MEAN_ANOMALY></meanElements><tleParameters><EPHEMERIS_TYPE>0</EPHEMERIS_TYPE><CLASSIFICATION_TYPE>U</CLASSIFICATION_TYPE><NORAD_CAT_ID>40086</NORAD_CAT_ID><ELEMENT_SET_NO>999</ELEMENT_SET_NO><REV_AT_EPOCH>55169</REV_AT_EPOCH><BSTAR>.62873E-3</BSTAR><MEAN_MOTION_DOT>.2725E-4</MEAN_MOTION_DOT><MEAN_MOTION_DDOT>0</MEAN_MOTION_DDOT></tleParameters></data></segment></body></omm>
<omm id="CCSDS_OMM_VERS" version="2.0">
<header><CREATION_DATE/><ORIGINATOR/></header><body><segment><metadata><OBJECT_NAME>ORBCOMM FM107</OBJECT_NAME><OBJECT_ID>2014-040B</OBJECT_ID><CENTER_NAME>EARTH</CENTER_NAME><REF_FRAME>TEME</REF_FRAME><TIME_SYSTEM>UTC</TIME_SYSTEM><MEAN_ELEMENT_THEORY>SGP4</MEAN_ELEMENT_THEORY></metadata><data><meanElements><EPOCH>2024-11-28T03:31:44.473728</EPOCH><MEAN_MOTION>14.57555615</MEAN_MOTION><ECCENTRICITY>.0000926</ECCENTRICITY><INCLINATION>47.0042</INCLINATION><RA_OF_ASC_NODE>246.3567</RA_OF_ASC_NODE><ARG_OF_PERICENTER>75.1877</ARG_OF_PERICENTER><MEAN_ANOMALY>284.9110</MEAN_ANOMALY></meanElements><tleParameters><EPHEMERIS_TYPE>0</EPHEMERIS_TYPE><CLASSIFICATION_TYPE>U</CLASSIFICATION_TYPE><NORAD_CAT_ID>40087</NORAD_CAT_ID><ELEMENT_SET_NO>999</ELEMENT_SET_NO><REV_AT_EPOCH>55184</REV_AT_EPOCH><BSTAR>.56172E-3</BSTAR><MEAN_MOTION_DOT>.2413E-4</MEAN_MOTION_DOT><MEAN_MOTION_DDOT>0</MEAN_MOTION_DDOT></tleParameters></data></segment></body></omm>
<omm id="CCSDS_OMM_VERS" version="2.0">
<header><CREATION_DATE/><ORIGINATOR/></header><body><segment><metadata><OBJECT_NAME>ORBCOMM FM106</OBJECT_NAME><OBJECT_ID>2014-040C</OBJECT_ID><CENTER_NAME>EARTH</CENTER_NAME><REF_FRAME>TEME</REF_FRAME><TIME_SYSTEM>UTC</TIME_SYSTEM><MEAN_ELEMENT_THEORY>SGP4</MEAN_ELEMENT_THEORY></metadata><data><meanElements><EPOCH>2024-11-28T01:07:34.699296</EPOCH><MEAN_MOTION>14.68377146</MEAN_MOTION><ECCENTRICITY>.0018273</ECCENTRICITY><INCLINATION>47.0596</INCLINATION><RA_OF_ASC_NODE>84.8060</RA_OF_ASC_NODE><ARG_OF_PERICENTER>215.9381</ARG_OF_PERICENTER><MEAN_ANOMALY>144.0282</MEAN_ANOMALY></meanElements><tleParameters><EPHEMERIS_TYPE>0</EPHEMERIS_TYPE><CLASSIFICATION_TYPE>U</CLASSIFICATION_TYPE><NORAD_CAT_ID>40088</NORAD_CAT_ID><ELEMENT_SET_NO>999</ELEMENT_SET_NO><REV_AT_EPOCH>55411</REV_AT_EPOCH><BSTAR>.74866E-3</BSTAR><MEAN_MOTION_DOT>.4198E-4</MEAN_MOTION_DOT><MEAN_MOTION_DDOT>0</MEAN_MOTION_DDOT></tleParameters></data></segment></body></omm>
<omm id="CCSDS_OMM_VERS" version="2.0">
<header><CREATION_DATE/><ORIGINATOR/></header><body><segment><metadata><OBJECT_NAME>ORBCOMM FM111</OBJECT_NAME><OBJECT_ID>2014-040D</OBJECT_ID><CENTER_NAME>EARTH</CENTER_NAME><REF_FRAME>TEME</REF_FRAME><TIME_SYSTEM>UTC</TIME_SYSTEM><MEAN_ELEMENT_THEORY>SGP4</MEAN_ELEMENT_THEORY></metadata><data><meanElements><EPOCH>2024-11-27T16:46:34.146912</EPOCH><MEAN_MOTION>14.84140151</MEAN_MOTION><ECCENTRICITY>.0032203</ECCENTRICITY><INCLINATION>47.0032</INCLINATION><RA_OF_ASC_NODE>323.0719</RA_OF_ASC_NODE><ARG_OF_PERICENTER>309.8635</ARG_OF_PERICENTER><MEAN_ANOMALY>49.9430</MEAN_ANOMALY></meanElements><tleParameters><EPHEMERIS_TYPE>0</EPHEMERIS_TYPE><CLASSIFICATION_TYPE>U</CLASSIFICATION_TYPE><NORAD_CAT_ID>40089</NORAD_CAT_ID><ELEMENT_SET_NO>999</ELEMENT_SET_NO><REV_AT_EPOCH>56027</REV_AT_EPOCH><BSTAR>.92674E-3</BSTAR><MEAN_MOTION_DOT>.7696E-4</MEAN_MOTION_DOT><MEAN_MOTION_DDOT>0</MEAN_MOTION_DDOT></tleParameters></data></segment></body></omm>
<omm id="CCSDS_OMM_VERS" version="2.0">
<header><CREATION_DATE/><ORIGINATOR/></header><body><segment><metadata><OBJECT_NAME>ORBCOMM FM104</OBJECT_NAME><OBJECT_ID>2014-040E</OBJECT_ID><CENTER_NAME>EARTH</CENTER_NAME><REF_FRAME>TEME</REF_FRAME><TIME_SYSTEM>UTC</TIME_SYSTEM><MEAN_ELEMENT_THEORY>SGP4</MEAN_ELEMENT_THEORY></metadata><data><meanElements><EPOCH>2024-11-27T22:03:08.615808</EPOCH><MEAN_MOTION>14.56000177</MEAN_MOTION><ECCENTRICITY>.0016873</ECCENTRICITY><INCLINATION>47.0047</INCLINATION><RA_OF_ASC_NODE>278.6665</RA_OF_ASC_NODE><ARG_OF_PERICENTER>3.6928</ARG_OF_PERICENTER><MEAN_ANOMALY>356.4078</MEAN_ANOMALY></meanElements><tleParameters><EPHEMERIS_TYPE>0</EPHEMERIS_TYPE><CLASSIFICATION_TYPE>U</CLASSIFICATION_TYPE><NORAD_CAT_ID>40090</NORAD_CAT_ID><ELEMENT_SET_NO>999</ELEMENT_SET_NO><REV_AT_EPOCH>55128</REV_AT_EPOCH><BSTAR>.60737E-3</BSTAR><MEAN_MOTION_DOT>.2534E-4</MEAN_MOTION_DOT><MEAN_MOTION_DDOT>0</MEAN_MOTION_DDOT></tleParameters></data></segment></body></omm>

</ndm>
