ORBCOMM FM37            
1 33064U 08031E   24332.90188293  .00004524  00000+0  64407-3 0  9990
2 33064  48.4388 219.5809 0006116 227.4415 183.2045 14.78289141884251
ORBCOMM FM40            
1 33065U 08031F   24332.89614066  .00005696  00000+0  76961-3 0  9990
2 33065  48.4408 206.7261 0007474 236.6289 191.0537 14.80118359884320
VESSELSAT 1             
1 37840U 11058C   24333.02092113  .00000570  00000+0  16628-3 0  9997
2 37840  19.9610 231.0783 0013762 133.6102 226.5445 14.11269334678080
ORBCOMM FM109           
1 40086U 14040A   24332.90393946  .00002725  00000+0  62873-3 0  9998
2 40086  47.0026 246.4711 0001605 109.7344 250.3715 14.57621654551694
ORBCOMM FM107           
1 40087U 14040B   24333.14704252  .00002413  00000+0  56172-3 0  9991
2 40087  47.0042 246.3567 0000926  75.1877 284.9110 14.57555615551845
ORBCOMM FM106           
1 40088U 14040C   24333.04692939  .00004198  00000+0  74866-3 0  9991
2 40088  47.0596  84.8060 0018273 215.9381 144.0282 14.68377146554113
ORBCOMM FM111           
1 40089U 14040D   24332.69900633  .00007696  00000+0  92674-3 0  9998
2 40089  47.0032 323.0719 0032203 309.8635  49.9430 14.84140151560276
ORBCOMM FM104           
1 40090U 14040E   24332.91884972  .00002534  00000+0  60737-3 0  9993
2 40090  47.0047 278.6665 0016873   3.6928 356.4078 14.56000177551285
